{"type": "FeatureCollection", "features": [ {"type": "Feature", "properties": {"norad_id": 66583, "name": "STARLINK-35941", "group": "last-30-days", "lat": 40.262103289445704, "lon": -78.07818239382044, "alt_km": 355.78985078633104, "timestamp": "2025-12-04T21:36:14.653158+00:00", "meta": {"OBJECT_NAME": "STARLINK-35941", "OBJECT_ID": "2025-268AC", "EPOCH": "2025-12-04T14:00:01.000224", "MEAN_MOTION": 15.70584342, "ECCENTRICITY": 0.00014838, "INCLINATION": 42.9989, "RA_OF_ASC_NODE": 169.1852, "ARG_OF_PERICENTER": 270.4973, "MEAN_ANOMALY": 205.2623, "EPHEMERIS_TYPE": 0, "CLASSIFICATION_TYPE": "U", "NORAD_CAT_ID": 66583, "ELEMENT_SET_NO": 999, "REV_AT_EPOCH": 335, "BSTAR": -0.017043166, "MEAN_MOTION_DOT": -0.01918495, "MEAN_MOTION_DDOT": 0}, "tle": {"line1": "1 66583U 25268AC  25338.58334491 -.01918495  00000+0 -17043-1 0  9993", "line2": "2 66583  42.9989 169.1852 0001483 270.4973 205.2623 15.70584342  3351"}}, "geometry": {"type": "Point", "coordinates": [-78.07818239382044, 40.262103289445704]}}, {"type": "Feature", "properties": {"norad_id": 66584, "name": "STARLINK-35939", "group": "last-30-days", "lat": 39.69224723125887, "lon": -75.69345681183978, "alt_km": 355.8283492337787, "timestamp": "2025-12-04T21:36:14.653168+00:00", "meta": {"OBJECT_NAME": "STARLINK-35939", "OBJECT_ID": "2025-268AD", "EPOCH": "2025-12-04T14:00:01.000224", "MEAN_MOTION": 15.70584775, "ECCENTRICITY": 0.00014692, "INCLINATION": 42.9988, "RA_OF_ASC_NODE": 169.1806, "ARG_OF_PERICENTER": 266.6559, "MEAN_ANOMALY": 211.0206, "EPHEMERIS_TYPE": 0, "CLASSIFICATION_TYPE": "U", "NORAD_CAT_ID": 66584, "ELEMENT_SET_NO": 999, "REV_AT_EPOCH": 335, "BSTAR": -0.017052896, "MEAN_MOTION_DOT": -0.01919486, "MEAN_MOTION_DDOT": 0}, "tle": {"line1": "1 66584U 25268AD  25338.58334491 -.01919486  00000+0 -17053-1 0  9996", "line2": "2 66584  42.9988 169.1806 0001469 266.6559 211.0206 15.70584775  3353"}}, "geometry": {"type": "Point", "coordinates": [-75.69345681183978, 39.69224723125887]}}, {"type": "Feature", "properties": {"norad_id": 66585, "name": "STARLINK-35963", "group": "last-30-days", "lat": 39.07441410227591, "lon": -73.34932708112913, "alt_km": 355.87445826329804, "timestamp": "2025-12-04T21:36:14.653181+00:00", "meta": {"OBJECT_NAME": "STARLINK-35963", "OBJECT_ID": "2025-268AE", "EPOCH": "2025-12-04T14:00:01.000224", "MEAN_MOTION": 15.7058964, "ECCENTRICITY": 0.00014181, "INCLINATION": 42.9988, "RA_OF_ASC_NODE": 169.1764, "ARG_OF_PERICENTER": 267.8066, "MEAN_ANOMALY": 211.7791, "EPHEMERIS_TYPE": 0, "CLASSIFICATION_TYPE": "U", "NORAD_CAT_ID": 66585, "ELEMENT_SET_NO": 999, "REV_AT_EPOCH": 335, "BSTAR": -0.017050538, "MEAN_MOTION_DOT": -0.01919562, "MEAN_MOTION_DDOT": 0}, "tle": {"line1": "1 66585U 25268AE  25338.58334491 -.01919562  00000+0 -17051-1 0  9990", "line2": "2 66585  42.9988 169.1764 0001418 267.8066 211.7791 15.70589640  3359"}}, "geometry": {"type": "Point", "coordinates": [-73.34932708112913, 39.07441410227591]}}, {"type": "Feature", "properties": {"norad_id": 66586, "name": "TJS-21", "group": "last-30-days", "lat": -19.840621668176105, "lon": 8.728818951737244, "alt_km": 385.9113474162168, "timestamp": "2025-12-04T21:36:14.653197+00:00", "meta": {"OBJECT_NAME": "TJS-21", "OBJECT_ID": "2025-269A", "EPOCH": "2025-11-22T00:38:56.616288", "MEAN_MOTION": 2.0099221, "ECCENTRICITY": 0.75179873, "INCLINATION": 51.0366, "RA_OF_ASC_NODE": 174.7096, "ARG_OF_PERICENTER": 225.0489, "MEAN_ANOMALY": 41.6572, "EPHEMERIS_TYPE": 0, "CLASSIFICATION_TYPE": "U", "NORAD_CAT_ID": 66586, "ELEMENT_SET_NO": 999, "REV_AT_EPOCH": 2, "BSTAR": 0.00053569978, "MEAN_MOTION_DOT": 3.197e-05, "MEAN_MOTION_DDOT": 0}, "tle": {"line1": "1 66586U 25269A   25326.02704417  .00003197  00000+0  53570-3 0  9990", "line2": "2 66586  51.0366 174.7096 7517987 225.0489  41.6572  2.00992210    24"}}, "geometry": {"type": "Point", "coordinates": [8.728818951737244, -19.840621668176105]}}, {"type": "Feature", "properties": {"norad_id": 66587, "name": "CZ-3B R/B", "group": "last-30-days", "lat": 0.735888040603797, "lon": 171.97795062017084, "alt_km": 17439.30861119972, "timestamp": "2025-12-04T21:36:14.653215+00:00", "meta": {"OBJECT_NAME": "CZ-3B R/B", "OBJECT_ID": "2025-269B", "EPOCH": "2025-12-02T10:16:46.437600", "MEAN_MOTION": 2.0223182, "ECCENTRICITY": 0.75203475, "INCLINATION": 51.3575, "RA_OF_ASC_NODE": 172.0321, "ARG_OF_PERICENTER": 226.8728, "MEAN_ANOMALY": 39.3228, "EPHEMERIS_TYPE": 0, "CLASSIFICATION_TYPE": "U", "NORAD_CAT_ID": 66587, "ELEMENT_SET_NO": 999, "REV_AT_EPOCH": 24, "BSTAR": 0.0019543247, "MEAN_MOTION_DOT": 0.00047329, "MEAN_MOTION_DDOT": -2.45602e-07}, "tle": {"line1": "1 66587U 25269B   25336.42831525  .00047329 -24560-6  19543-2 0  9998", "line2": "2 66587  51.3575 172.0321 7520347 226.8728  39.3228  2.02231820   242"}}, "geometry": {"type": "Point", "coordinates": [171.97795062017084, 0.735888040603797]}}, {"type": "Feature", "properties": {"norad_id": 66588, "name": "STARLINK-36076", "group": "last-30-days", "lat": -31.337071711822947, "lon": 100.03915000710893, "alt_km": 344.87628141484674, "timestamp": "2025-12-04T21:36:14.653227+00:00", "meta": {"OBJECT_NAME": "STARLINK-36076", "OBJECT_ID": "2025-270A", "EPOCH": "2025-12-04T14:32:49.725312", "MEAN_MOTION": 15.75192132, "ECCENTRICITY": 0.00017896, "INCLINATION": 42.9977, "RA_OF_ASC_NODE": 241.019, "ARG_OF_PERICENTER": 230.5888, "MEAN_ANOMALY": 129.4823, "EPHEMERIS_TYPE": 0, "CLASSIFICATION_TYPE": "U", "NORAD_CAT_ID": 66588, "ELEMENT_SET_NO": 999, "REV_AT_EPOCH": 307, "BSTAR": 0.0030819661, "MEAN_MOTION_DOT": 0.0050583, "MEAN_MOTION_DDOT": 0}, "tle": {"line1": "1 66588U 25270A   25338.60613108  .00505830  00000+0  30820-2 0  9990", "line2": "2 66588  42.9977 241.0190 0001789 230.5888 129.4823 15.75192132  3074"}}, "geometry": {"type": "Point", "coordinates": [100.03915000710893, -31.337071711822947]}}, {"type": "Feature", "properties": {"norad_id": 66589, "name": "STARLINK-35447", "group": "last-30-days", "lat": -33.33744562199529, "lon": 104.13243010471258, "alt_km": 343.9421689745823, "timestamp": "2025-12-04T21:36:14.653237+00:00", "meta": {"OBJECT_NAME": "STARLINK-35447", "OBJECT_ID": "2025-270B", "EPOCH": "2025-12-04T14:31:51.204000", "MEAN_MOTION": 15.75295039, "ECCENTRICITY": 0.00024945, "INCLINATION": 42.9972, "RA_OF_ASC_NODE": 241.0115, "ARG_OF_PERICENTER": 226.9206, "MEAN_ANOMALY": 133.1455, "EPHEMERIS_TYPE": 0, "CLASSIFICATION_TYPE": "U", "NORAD_CAT_ID": 66589, "ELEMENT_SET_NO": 999, "REV_AT_EPOCH": 318, "BSTAR": 0.0041795421, "MEAN_MOTION_DOT": 0.00706046, "MEAN_MOTION_DDOT": 0}, "tle": {"line1": "1 66589U 25270B   25338.60545375  .00706046  00000+0  41795-2 0  9996", "line2": "2 66589  42.9972 241.0115 0002494 226.9206 133.1455 15.75295039  3189"}}, "geometry": {"type": "Point", "coordinates": [104.13243010471258, -33.33744562199529]}}, {"type": "Feature", "properties": {"norad_id": 66590, "name": "STARLINK-35429", "group": "last-30-days", "lat": -32.39576198731251, "lon": 102.14607423725118, "alt_km": 343.5594331403936, "timestamp": "2025-12-04T21:36:14.653247+00:00", "meta": {"OBJECT_NAME": "STARLINK-35429", "OBJECT_ID": "2025-270C", "EPOCH": "2025-12-04T14:32:20.205024", "MEAN_MOTION": 15.75292729, "ECCENTRICITY": 0.00030143, "INCLINATION": 42.9984, "RA_OF_ASC_NODE": 241.0142, "ARG_OF_PERICENTER": 233.1844, "MEAN_ANOMALY": 126.8749, "EPHEMERIS_TYPE": 0, "CLASSIFICATION_TYPE": "U", "NORAD_CAT_ID": 66590, "ELEMENT_SET_NO": 999, "REV_AT_EPOCH": 318, "BSTAR": 0.0041457531, "MEAN_MOTION_DOT": 0.00699701, "MEAN_MOTION_DDOT": 0}, "tle": {"line1": "1 66590U 25270C   25338.60578941  .00699701  00000+0  41458-2 0  9998", "line2": "2 66590  42.9984 241.0142 0003014 233.1844 126.8749 15.75292729  3189"}}, "geometry": {"type": "Point", "coordinates": [102.14607423725118, -32.39576198731251]}}, {"type": "Feature", "properties": {"norad_id": 66591, "name": "STARLINK-36058", "group": "last-30-days", "lat": -34.25570325465786, "lon": 106.17926408166716, "alt_km": 343.45338035828354, "timestamp": "2025-12-04T21:36:14.653258+00:00", "meta": {"OBJECT_NAME": "STARLINK-36058", "OBJECT_ID": "2025-270D", "EPOCH": "2025-12-04T14:31:22.077696", "MEAN_MOTION": 15.75325966, "ECCENTRICITY": 0.0003126, "INCLINATION": 42.9976, "RA_OF_ASC_NODE": 241.0091, "ARG_OF_PERICENTER": 240.6784, "MEAN_ANOMALY": 119.3773, "EPHEMERIS_TYPE": 0, "CLASSIFICATION_TYPE": "U", "NORAD_CAT_ID": 66591, "ELEMENT_SET_NO": 999, "REV_AT_EPOCH": 307, "BSTAR": 0.0043375126, "MEAN_MOTION_DOT": 0.00736392, "MEAN_MOTION_DDOT": 0}, "tle": {"line1": "1 66591U 25270D   25338.60511664  .00736392  00000+0  43375-2 0  9996", "line2": "2 66591  42.9976 241.0091 0003126 240.6784 119.3773 15.75325966  3076"}}, "geometry": {"type": "Point", "coordinates": [106.17926408166716, -34.25570325465786]}}, {"type": "Feature", "properties": {"norad_id": 66592, "name": "STARLINK-36066", "group": "last-30-days", "lat": -35.110389967473125, "lon": 108.19905904129422, "alt_km": 343.61601148694353, "timestamp": "2025-12-04T21:36:14.653281+00:00", "meta": {"OBJECT_NAME": "STARLINK-36066", "OBJECT_ID": "2025-270E", "EPOCH": "2025-12-04T14:30:52.795008", "MEAN_MOTION": 15.75285821, "ECCENTRICITY": 0.00031754, "INCLINATION": 42.998, "RA_OF_ASC_NODE": 241.0052, "ARG_OF_PERICENTER": 239.6657, "MEAN_ANOMALY": 120.3899, "EPHEMERIS_TYPE": 0, "CLASSIFICATION_TYPE": "U", "NORAD_CAT_ID": 66592, "ELEMENT_SET_NO": 999, "REV_AT_EPOCH": 297, "BSTAR": 0.0041599638, "MEAN_MOTION_DOT": 0.00702087, "MEAN_MOTION_DDOT": 0}, "tle": {"line1": "1 66592U 25270E   25338.60477772  .00702087  00000+0  41600-2 0  9991", "line2": "2 66592  42.9980 241.0052 0003175 239.6657 120.3899 15.75285821  2974"}}, "geometry": {"type": "Point", "coordinates": [108.19905904129422, -35.110389967473125]}}]}